METAR Data


KATL 122252Z 29004KT 10SM SCT150 BKN250 22/03 A3019 RMK AO2 SLP223 T02170028

KBOS 122254Z 31010KT 10SM FEW045 SCT200 06/M09 A3014 RMK AO2 SLP205 T00561089

KBWI 122254Z 31005KT 10SM FEW250 08/M08 A3028 RMK AO2 SLP253 T00831078

KCLE 122251Z 36005KT 10SM FEW250 03/M09 A3034 RMK AO2 SLP283 T00281089

KCLT 122252Z 34003KT 10SM FEW200 BKN250 14/M07 A3026 RMK AO2 SLP247 T01441067

KCVG 122252Z 18004KT 10SM FEW200 OVC250 09/M06 A3028 RMK AO2 SLP258 T00891061

KDCA 122252Z 35010KT 10SM FEW250 10/M08 A3029 RMK AO2 SLP256 T01001078

KDEN 122253Z 07006KT 10SM FEW100 SCT130 BKN200 15/02 A2957 RMK AO2 SLP979 T01500022

KDFW 122253Z 13012KT 2 1/2SM BR OVC005 18/17 A2988 RMK AO2 PRESFR SLP115 T01780167

KDTW 122253Z 19010KT 10SM SCT250 06/M05 A3028 RMK AO2 SLP261 T00561050

KEWR 122251Z 32013G22KT 10SM FEW060 FEW250 05/M09 A3025 RMK AO2 SLP244 T00501094

KFLL 122253Z 03009KT 10SM FEW028 FEW055 26/19 A3007 RMK AO2 SLP180 T02560189

KIAD 122252Z 02010KT 10SM FEW250 09/M09 A3027 RMK AO2 SLP252 T00941089

KIAH 122253Z 15016G24KT 3SM BR OVC006 21/20 A2999 RMK AO2 SLP156 T02060200

KJFK 122251Z 31011KT 10SM FEW060 FEW250 05/M07 A3025 RMK AO2 SLP242 T00501072

KLAS 122256Z 11004KT 10SM FEW050 SCT080 SCT150 BKN200 18/04 A2959 RMK AO2 SLP010 T01830039

KLAX 122253Z 26023G28KT 10SM FEW040 FEW100 17/11 A2973 RMK AO2 PK WND 27031/2158 SLP067 T01720106 $

KLGA 122251Z 30013KT 10SM FEW055 FEW250 04/M07 A3024 RMK AO2 PK WND 31027/2200 SLP238 T00441072

KMCO 122253Z 03012KT 10SM BKN032 BKN044 22/15 A3016 RMK AO2 SLP210 T02220150

KMDW 122253Z 17013G22KT 10SM FEW070 FEW120 BKN200 08/M03 A3018 RMK AO2 SLP229 T00781028

KMEM 122254Z 14006KT 10SM BKN140 OVC250 18/08 A3014 RMK AO2 SLP207 T01780078

KMIA 122253Z 05009KT 10SM SCT050 SCT085 SCT250 26/20 A3007 RMK AO2 SLP183 T02610200

KMSP 122315Z 15016G22KT 5SM -RA BR FEW009 BKN016 OVC070 02/01 A2981 RMK AO2 P0002 T00220006

KORD 122251Z 18013G22KT 10SM FEW075 SCT210 BKN250 07/M03 A3016 RMK AO2 SLP219 T00671033

KPDX 122253Z 29007KT 10SM BKN032 BKN046 BKN060 07/02 A2999 RMK AO2 PK WND 29029/2219 RAE45 SLP155 CB DSNT SE P0001 T00720022

KPHL 122254Z 32011KT 10SM CLR 07/M09 A3028 RMK AO2 SLP252 T00721089

KPHX 122251Z 07005KT 10SM FEW022 BKN060 BKN130 BKN270 14/09 A2970 RMK AO2 SLP049 T01390089

KPIT 122251Z 29007KT 10SM FEW250 06/M09 A3029 RMK AO2 SLP277 T00611089

KSAN 122251Z COR 24008KT 10SM FEW050 FEW200 17/09 A2983 RMK AO2 SLP101 T01670089

KSEA 122253Z 17004KT 10SM FEW019 SCT055 BKN080 08/02 A2990 RMK AO2 SLP132 T00780017

KSFO 122256Z 28027G41KT 10SM FEW026 13/05 A2991 RMK AO2 PK WND 28042/2241 SLP127 T01330050

KSLC 122254Z 34009KT 10SM FEW050 FEW065 BKN090 BKN200 11/02 A2957 RMK AO2 SLP001 T01060017

KSTL 122251Z 15011KT 9SM -RA BKN050 OVC090 09/01 A3018 RMK AO2 RAB2157 SLP225 P0000 T00940006

KTPA 122253Z 08008KT 10SM FEW020 BKN038 BKN200 24/17 A3014 RMK AO2 SLP205 T02390172
