ADDS METAR Data


Data at: 2314 UTC 11 May 2018
Region: TOP

KATL 112252Z 21006KT 10SM FEW065TCU 30/16 A3007 RMK AO2 SLP174 TCU OHD-NE
  T03000161

KBOS 112254Z 08007KT 10SM FEW035 BKN170 BKN310 16/06 A3004 RMK AO2 SLP170
  T01560056

KBWI 112254Z VRB03KT 10SM FEW090 SCT150 26/10 A3001 RMK AO2 SLP161 T02610100

KCLE 112251Z 08008KT 10SM BKN055 OVC200 13/03 A3008 RMK AO2 SLP189 T01330028 $

KCLT 112252Z 22006KT 10SM FEW060 SCT120 SCT250 30/16 A3004 RMK AO2 LTG DSNT N
  SLP163 CB DSNT N-NE T03000156

KCVG 112252Z 21005KT 10SM OVC250 28/14 A2993 RMK AO2 SLP126 T02780144

KDCA 112252Z 10008KT 10SM FEW065 FEW130 SCT250 27/13 A3000 RMK AO2 SLP160
  T02720133

KDEN 112253Z 06023G30KT 10SM SCT080 BKN120 BKN200 23/09 A2968 RMK AO2 PK WND
  08033/2239 WSHFT 2151 SLP990 T02280094

KDFW 112253Z 18020G32KT 10SM FEW050 FEW250 31/16 A2982 RMK AO2 PK WND 18032/2245
  SLP089 T03060156

KDTW 112253Z 05007KT 4SM RA BKN013 BKN055 OVC070 07/04 A3011 RMK AO2 SLP198
  P0004 T00720044

KEWR 112251Z 32009KT 10SM FEW070 SCT140 BKN250 22/M01 A3003 RMK AO2 SLP169
  T02221011

KFLL 112253Z 07010KT 10SM FEW033 FEW120 SCT190 BKN250 26/19 A3006 RMK AO2 SLP179
  T02610189

KIAD 112252Z 04007KT 10SM CLR 26/14 A3001 RMK AO2 SLP160 T02560144

KIAH 112253Z 18011G19KT 10SM SCT050 31/19 A2992 RMK AO2 SLP132 T03060189

KJFK 112251Z 31013KT 10SM SCT170 SCT260 22/M01 A3004 RMK AO2 SLP171 T02221011

KLAS 112256Z 20017G27KT 10SM FEW100 BKN250 33/M03 A2947 RMK AO2 PK WND
  22029/2215 SLP953 OCNL VCBLDU T03281028

KLAX 112253Z 16010G18KT 10SM BKN025 OVC033 18/12 A2983 RMK AO2 SLP099 T01830117

KLGA 112251Z 34012KT 10SM FEW075 BKN250 21/01 A3003 RMK AO2 SLP169 T02110006

KMCO 112253Z 08012KT 10SM SCT070 BKN095 OVC250 31/15 A3006 RMK AO2 SLP176
  T03060150

KMDW 112253Z 05017KT 10SM FEW004 FEW065 BKN140 BKN250 11/06 A2995 RMK AO2 SLP143
  T01060061

KMEM 112254Z 15011KT 10SM FEW200 31/15 A2999 RMK AO2 SLP150 T03060150

KMIA 112253Z 08014G18KT 10SM FEW035 OVC250 27/19 A3007 RMK AO2 SLP182 T02670189

KMSP 112253Z 06007KT 10SM OVC034 11/04 A3003 RMK AO2 SLP173 T01060044

KORD 112251Z 05017KT 10SM FEW055 SCT130 OVC250 09/05 A2996 RMK AO2 SLP148
  T00940050

KPDX 112253Z 32013KT 10SM SCT045 20/08 A3018 RMK AO2 SLP220 T02000078

KPHL 112254Z 36005KT 10SM FEW070 SCT100 SCT260 23/02 A3003 RMK AO2 SLP170
  T02330022 $

KPHX 112251Z 24019G26KT 10SM FEW250 38/M03 A2959 RMK AO2 PK WND 23026/2229
  SLP000 T03781028

KPIT 112251Z 07007KT 10SM SCT055 SCT150 BKN250 17/06 A3004 RMK AO2 SLP180
  T01670061

KSAN 112251Z 21014KT 10SM BKN015 OVC024 16/11 A2990 RMK AO2 SLP123 T01610111

KSEA 112253Z 29008KT 10SM SCT036 18/09 A3023 RMK AO2 SLP242 T01830089

KSFO 112256Z 28019KT 10SM FEW030 FEW200 22/07 A2978 RMK AO2 SLP085 T02220072

KSLC 112254Z 34012KT 10SM FEW018 SCT030 BKN040 OVC150 12/06 A2979 RMK AO2
  RAB22E36 SLP059 P0000 T01170061

KSTL 112251Z 19013G25KT 10SM FEW200 BKN250 31/13 A2978 RMK AO2 SLP074 T03110128

KTPA 112253Z 29007KT 10SM SCT075 OVC250 30/18 A3005 RMK AO2 SLP175 T03000178